{
  "type": "FeatureCollection",
  "features": [
    {
      "type": "Feature",
      "properties": {
        "norad_id": 34010,
        "name": "COSMOS 2251 DEB",
        "group": "cosmos-2251-debris",
        "lat": -53.33541686591762,
        "lon": -113.1135536627706,
        "alt_km": 514.5980667342992,
        "timestamp": "2025-12-19T06:59:44.300100+00:00",
        "meta_object_name": "COSMOS 2251 DEB",
        "meta_object_id": "1993-036GV",
        "meta_epoch": "2025-12-18T20:11:04.855488",
        "meta_mean_motion": 15.19694993,
        "meta_eccentricity": 0.00045051,
        "meta_inclination": 73.9994,
        "meta_ra_of_asc_node": 270.5054,
        "meta_arg_of_pericenter": 60.785,
        "meta_mean_anomaly": 299.3798,
        "meta_ephemeris_type": 0,
        "meta_classification_type": "U",
        "meta_norad_cat_id": 34010,
        "meta_element_set_no": 999,
        "meta_rev_at_epoch": 89378,
        "meta_bstar": 0.0032051215,
        "meta_mean_motion_dot": 0.0006909,
        "meta_mean_motion_ddot": 0,
        "tle_line1": "1 34010U 93036GV  25352.84102842  .00069090  00000+0  32051-2 0  9991",
        "tle_line2": "2 34010  73.9994 270.5054 0004505  60.7850 299.3798 15.19694993893782"
      },
      "geometry": {
        "type": "Point",
        "coordinates": [
          -113.1135536627706,
          -53.33541686591762
        ]
      }
    },
    {
      "type": "Feature",
      "properties": {
        "norad_id": 34011,
        "name": "COSMOS 2251 DEB",
        "group": "cosmos-2251-debris",
        "lat": 48.51331921971295,
        "lon": -23.093950335975784,
        "alt_km": 722.6931783632781,
        "timestamp": "2025-12-19T06:59:44.300110+00:00",
        "meta_object_name": "COSMOS 2251 DEB",
        "meta_object_id": "1993-036GW",
        "meta_epoch": "2025-12-18T22:26:03.717600",
        "meta_mean_motion": 14.41797729,
        "meta_eccentricity": 0.00359966,
        "meta_inclination": 74.0143,
        "meta_ra_of_asc_node": 318.6528,
        "meta_arg_of_pericenter": 40.4003,
        "meta_mean_anomaly": 319.9816,
        "meta_ephemeris_type": 0,
        "meta_classification_type": "U",
        "meta_norad_cat_id": 34011,
        "meta_element_set_no": 999,
        "meta_rev_at_epoch": 88005,
        "meta_bstar": 0.00057181891,
        "meta_mean_motion_dot": 1.857e-05,
        "meta_mean_motion_ddot": 0,
        "tle_line1": "1 34011U 93036GW  25352.93476525  .00001857  00000+0  57182-3 0  9994",
        "tle_line2": "2 34011  74.0143 318.6528 0035996  40.4003 319.9816 14.41797729880055"
      },
      "geometry": {
        "type": "Point",
        "coordinates": [
          -23.093950335975784,
          48.51331921971295
        ]
      }
    },
    {
      "type": "Feature",
      "properties": {
        "norad_id": 34014,
        "name": "COSMOS 2251 DEB",
        "group": "cosmos-2251-debris",
        "lat": 7.416476139923487,
        "lon": -89.91905589727959,
        "alt_km": 631.7533404202622,
        "timestamp": "2025-12-19T06:59:44.300120+00:00",
        "meta_object_name": "COSMOS 2251 DEB",
        "meta_object_id": "1993-036GZ",
        "meta_epoch": "2025-12-18T21:29:36.466944",
        "meta_mean_motion": 14.73209754,
        "meta_eccentricity": 0.00373054,
        "meta_inclination": 74.0178,
        "meta_ra_of_asc_node": 268.715,
        "meta_arg_of_pericenter": 46.6713,
        "meta_mean_anomaly": 22.488,
        "meta_ephemeris_type": 0,
        "meta_classification_type": "U",
        "meta_norad_cat_id": 34014,
        "meta_element_set_no": 999,
        "meta_rev_at_epoch": 89394,
        "meta_bstar": 0.00070231725,
        "meta_mean_motion_dot": 4.553e-05,
        "meta_mean_motion_ddot": 0,
        "tle_line1": "1 34014U 93036GZ  25352.89556096  .00004553  00000+0  70232-3 0  9991",
        "tle_line2": "2 34014  74.0178 268.7150 0037305  46.6713  22.4880 14.73209754893944"
      },
      "geometry": {
        "type": "Point",
        "coordinates": [
          -89.91905589727959,
          7.416476139923487
        ]
      }
    },
    {
      "type": "Feature",
      "properties": {
        "norad_id": 34015,
        "name": "COSMOS 2251 DEB",
        "group": "cosmos-2251-debris",
        "lat": -0.6250916011843769,
        "lon": -32.913825951240945,
        "alt_km": 688.0836669961855,
        "timestamp": "2025-12-19T06:59:44.300130+00:00",
        "meta_object_name": "COSMOS 2251 DEB",
        "meta_object_id": "1993-036HA",
        "meta_epoch": "2025-12-18T20:49:36.533280",
        "meta_mean_motion": 14.60329926,
        "meta_eccentricity": 0.00209707,
        "meta_inclination": 74.023,
        "meta_ra_of_asc_node": 147.7163,
        "meta_arg_of_pericenter": 244.5586,
        "meta_mean_anomaly": 229.6249,
        "meta_ephemeris_type": 0,
        "meta_classification_type": "U",
        "meta_norad_cat_id": 34015,
        "meta_element_set_no": 999,
        "meta_rev_at_epoch": 88620,
        "meta_bstar": 0.0011695602,
        "meta_mean_motion_dot": 5.645e-05,
        "meta_mean_motion_ddot": 0,
        "tle_line1": "1 34015U 93036HA  25352.86778395  .00005645  00000+0  11696-2 0  9998",
        "tle_line2": "2 34015  74.0230 147.7163 0020970 244.5586 229.6249 14.60329926886202"
      },
      "geometry": {
        "type": "Point",
        "coordinates": [
          -32.913825951240945,
          -0.6250916011843769
        ]
      }
    },
    {
      "type": "Feature",
      "properties": {
        "norad_id": 34018,
        "name": "COSMOS 2251 DEB",
        "group": "cosmos-2251-debris",
        "lat": -70.14405751112324,
        "lon": -45.789689986407836,
        "alt_km": 1118.661018072752,
        "timestamp": "2025-12-19T06:59:44.300141+00:00",
        "meta_object_name": "COSMOS 2251 DEB",
        "meta_object_id": "1993-036HD",
        "meta_epoch": "2025-12-18T12:28:21.820800",
        "meta_mean_motion": 13.81078586,
        "meta_eccentricity": 0.02634097,
        "meta_inclination": 73.8781,
        "meta_ra_of_asc_node": 82.3012,
        "meta_arg_of_pericenter": 117.0842,
        "meta_mean_anomaly": 263.5035,
        "meta_ephemeris_type": 0,
        "meta_classification_type": "U",
        "meta_norad_cat_id": 34018,
        "meta_element_set_no": 999,
        "meta_rev_at_epoch": 84737,
        "meta_bstar": 0.00030216785,
        "meta_mean_motion_dot": 3.94e-06,
        "meta_mean_motion_ddot": 0,
        "tle_line1": "1 34018U 93036HD  25352.51969700  .00000394  00000+0  30217-3 0  9992",
        "tle_line2": "2 34018  73.8781  82.3012 0263409 117.0842 263.5035 13.81078586847375"
      },
      "geometry": {
        "type": "Point",
        "coordinates": [
          -45.789689986407836,
          -70.14405751112324
        ]
      }
    },
    {
      "type": "Feature",
      "properties": {
        "norad_id": 34019,
        "name": "COSMOS 2251 DEB",
        "group": "cosmos-2251-debris",
        "lat": -6.949059218664934,
        "lon": -139.29797495421434,
        "alt_km": 743.8668811561583,
        "timestamp": "2025-12-19T06:59:44.300151+00:00",
        "meta_object_name": "COSMOS 2251 DEB",
        "meta_object_id": "1993-036HE",
        "meta_epoch": "2025-12-18T14:05:34.771200",
        "meta_mean_motion": 14.33963758,
        "meta_eccentricity": 0.00625144,
        "meta_inclination": 73.9546,
        "meta_ra_of_asc_node": 39.9865,
        "meta_arg_of_pericenter": 220.3775,
        "meta_mean_anomaly": 292.8954,
        "meta_ephemeris_type": 0,
        "meta_classification_type": "U",
        "meta_norad_cat_id": 34019,
        "meta_element_set_no": 999,
        "meta_rev_at_epoch": 87604,
        "meta_bstar": 0.00060238319,
        "meta_mean_motion_dot": 1.691e-05,
        "meta_mean_motion_ddot": 0,
        "tle_line1": "1 34019U 93036HE  25352.58720800  .00001691  00000+0  60238-3 0  9993",
        "tle_line2": "2 34019  73.9546  39.9865 0062514 220.3775 292.8954 14.33963758876040"
      },
      "geometry": {
        "type": "Point",
        "coordinates": [
          -139.29797495421434,
          -6.949059218664934
        ]
      }
    },
    {
      "type": "Feature",
      "properties": {
        "norad_id": 34021,
        "name": "COSMOS 2251 DEB",
        "group": "cosmos-2251-debris",
        "lat": -52.96508514435571,
        "lon": 95.2313592527404,
        "alt_km": 721.5025845069558,
        "timestamp": "2025-12-19T06:59:44.300161+00:00",
        "meta_object_name": "COSMOS 2251 DEB",
        "meta_object_id": "1993-036HG",
        "meta_epoch": "2025-12-18T09:59:12.329952",
        "meta_mean_motion": 14.49967996,
        "meta_eccentricity": 0.00209503,
        "meta_inclination": 74.0359,
        "meta_ra_of_asc_node": 119.1704,
        "meta_arg_of_pericenter": 262.6354,
        "meta_mean_anomaly": 153.6647,
        "meta_ephemeris_type": 0,
        "meta_classification_type": "U",
        "meta_norad_cat_id": 34021,
        "meta_element_set_no": 999,
        "meta_rev_at_epoch": 88712,
        "meta_bstar": 0.00037948616,
        "meta_mean_motion_dot": 1.445e-05,
        "meta_mean_motion_ddot": 0,
        "tle_line1": "1 34021U 93036HG  25352.41611493  .00001445  00000+0  37949-3 0  9995",
        "tle_line2": "2 34021  74.0359 119.1704 0020950 262.6354 153.6647 14.49967996887129"
      },
      "geometry": {
        "type": "Point",
        "coordinates": [
          95.2313592527404,
          -52.96508514435571
        ]
      }
    }
  ]
}